H1 CPF 01  gfz 2022 04 01 00  5911 terrasarx 
H2 0702601  6201 31698    2022 04 01 00 59 42 2022 04 06 00 00 42   120 1 1  0 0 0
H9
10 0 59674  22302.000000  0   -5450056.562    785367.642   4130051.716
10 0 59674  22422.000000  0   -4838850.929    889822.279   4811839.135
10 0 59674  22542.000000  0   -4141500.263    967278.370   5408946.909
10 0 59674  22662.000000  0   -3370714.346   1014992.780   5910903.819
10 0 59674  22782.000000  0   -2540517.997   1030976.472   6308920.166
10 0 59674  22902.000000  0   -1665988.833   1014048.540   6596037.000
10 0 59674  23022.000000  0    -762977.785    963871.896   6767241.027
10 0 59674  23142.000000  0     152179.633    880969.174   6819545.514
10 0 59674  23262.000000  0    1062958.029    766719.056   6752038.635
10 0 59674  23382.000000  0    1952939.122    623333.513   6565898.392
10 0 59674  23502.000000  0    2806106.455    453815.897   6264373.712
10 0 59674  23622.000000  0    3607134.258    261900.407   5852732.345
10 0 59674  23742.000000  0    4341665.552     51973.652   5338174.038
10 0 59674  23862.000000  0    4996573.954   -171020.224   4729710.631
10 0 59674  23982.000000  0    5560205.154   -401689.226   4038013.975
10 0 59674  24102.000000  0    6022593.835   -634315.631   3275233.367
10 0 59674  24222.000000  0    6375650.876   -862988.151   2454783.522
10 0 59674  24342.000000  0    6613314.416  -1081740.876   1591105.998
10 0 59674  24462.000000  0    6731660.707  -1284695.910    699410.890
10 0 59674  24582.000000  0    6728975.311  -1466206.755   -204597.210
10 0 59674  24702.000000  0    6605778.493  -1620998.187  -1105005.881
10 0 59674  24822.000000  0    6364804.458  -1744298.097  -1985983.559
10 0 59674  24942.000000  0    6010936.548  -1831959.055  -2832066.093
10 0 59674  25062.000000  0    5551099.436  -1880566.055  -3628433.146
10 0 59674  25182.000000  0    4994113.139  -1887527.919  -4361169.239
10 0 59674  25302.000000  0    4350513.136  -1851150.296  -5017505.217
10 0 59674  25422.000000  0    3632340.205  -1770689.616  -5586035.863
10 0 59674  25542.000000  0    2852905.690  -1646386.502  -6056908.925
10 0 59674  25662.000000  0    2026540.024  -1479477.849  -6421984.643
10 0 59674  25782.000000  0    1168327.512  -1272187.926  -6674966.545
10 0 59674  25902.000000  0     293831.742  -1027699.571  -6811499.093
10 0 59674  26022.000000  0    -581182.309   -750105.789  -6829234.420
10 0 59674  26142.000000  0   -1441025.902   -444342.376  -6727868.022
10 0 59674  26262.000000  0   -2270361.747   -116102.023  -6509143.455
10 0 59674  26382.000000  0   -3054471.254    228268.590  -6176824.425
10 0 59674  26502.000000  0   -3779510.369    581887.130  -5736637.453
10 0 59674  26622.000000  0   -4432753.561    937468.387  -5196183.766
10 0 59674  26742.000000  0   -5002819.693   1287468.745  -4564819.538
10 0 59674  26862.000000  0   -5479877.805   1624242.048  -3853506.038
10 0 59674  26982.000000  0   -5855825.811   1940202.417  -3074628.063
10 0 59674  27102.000000  0   -6124439.340   2227989.827  -2241785.174
10 0 59674  27222.000000  0   -6281486.815   2480635.936  -1369557.513
10 0 59674  27342.000000  0   -6324806.974   2691726.116   -473249.640
10 0 59674  27462.000000  0   -6254346.059   2855552.799    431383.070
10 0 59674  27582.000000  0   -6072151.626   2967256.177   1328419.372
10 0 59674  27702.000000  0   -5782323.571   3022949.061   2202061.187
10 0 59674  27822.000000  0   -5390923.435   3019821.525   3036920.654
10 0 59674  27942.000000  0   -4905845.555   2956223.485   3818298.889
10 0 59674  28062.000000  0   -4336651.485   2831721.948   4532450.696
10 0 59674  28182.000000  0   -3694373.839   2647132.836   5166827.910
10 0 59674  28302.000000  0   -2991295.428   2404527.271   5710299.137
10 0 59674  28422.000000  0   -2240706.919   2107212.038   6153342.793
10 0 59674  28542.000000  0   -1456649.047   1759684.046   6488208.783
10 0 59674  28662.000000  0    -653645.343   1367560.610   6709047.066
10 0 59674  28782.000000  0     153567.554    937486.818   6812002.809
10 0 59674  28902.000000  0     950309.624    477022.105   6795279.406
10 0 59674  29022.000000  0    1722223.251     -5492.272   6659167.590
10 0 59674  29142.000000  0    2455530.679   -501083.441   6406041.300
10 0 59674  29262.000000  0    3137279.830  -1000313.121   6040319.892
10 0 59674  29382.000000  0    3755575.472  -1493456.049   5568396.292
10 0 59674  29502.000000  0    4299790.814  -1970689.191   4998530.596
10 0 59674  29622.000000  0    4760754.889  -2422287.125   4340711.411
10 0 59674  29742.000000  0    5130914.830  -2838821.023   3606486.808
10 0 59674  29862.000000  0    5404468.305  -3211356.894   2808763.607
10 0 59674  29982.000000  0    5577460.595  -3531647.250   1961578.982
10 0 59674  30102.000000  0    5647845.144  -3792312.979   1079850.831
10 0 59674  30222.000000  0    5615506.563  -3987010.519    179108.774
10 0 59674  30342.000000  0    5482244.355  -4110578.885   -724786.896
10 0 59674  30462.000000  0    5251717.890  -4159164.012  -1615934.039
10 0 59674  30582.000000  0    4929353.587  -4130315.516  -2478677.050
10 0 59674  30702.000000  0    4522216.945  -4023054.913  -3297888.303
10 0 59674  30822.000000  0    4038853.854  -3837913.688  -4059237.181
10 0 59674  30942.000000  0    3489104.969  -3576940.385  -4749440.493
10 0 59674  31062.000000  0    2883899.084  -3243677.422  -5356490.386
10 0 59674  31182.000000  0    2235030.503  -2843108.768  -5869854.964
10 0 59674  31302.000000  0    1554926.989  -2381581.804  -6280650.298
10 0 59674  31422.000000  0     856411.340  -1866703.562  -6581785.029
10 0 59674  31542.000000  0     152460.373  -1307211.931  -6768072.307
10 0 59674  31662.000000  0    -544032.522   -712827.103  -6836308.838
10 0 59674  31782.000000  0   -1220487.719    -94085.237  -6785323.124
10 0 59674  31902.000000  0   -1864861.412    537843.981  -6615993.057
10 0 59674  32022.000000  0   -2465855.052   1171353.746  -6331231.895
10 0 59674  32142.000000  0   -3013109.223   1794607.936  -5935943.657
10 0 59674  32262.000000  0   -3497380.715   2395757.351  -5436948.335
10 0 59674  32382.000000  0   -3910701.156   2963162.673  -4842876.322
10 0 59674  32502.000000  0   -4246513.403   3485619.558  -4164029.754
10 0 59674  32622.000000  0   -4499780.946   3952581.066  -3412213.216
10 0 59674  32742.000000  0   -4667069.261   4354373.793  -2600537.161
10 0 59674  32862.000000  0   -4746597.722   4682402.078  -1743193.983
10 0 59674  32982.000000  0   -4738259.320   4929335.562   -855211.531
10 0 59674  33102.000000  0   -4643607.878   5089275.704     47813.421
10 0 59674  33222.000000  0   -4465809.425   5157895.264    949995.835
10 0 59674  33342.000000  0   -4209562.753   5132547.256   1835450.174
10 0 59674  33462.000000  0   -3880986.819   5012339.175   2688580.798
10 0 59674  33582.000000  0   -3487479.197   4798171.050   3494364.853
10 0 59674  33702.000000  0   -3037550.523   4492737.587   4238622.378
10 0 59674  33822.000000  0   -2540639.675   4100494.660   4908269.586
10 0 59674  33942.000000  0   -2006913.000   3627590.016   5491549.966
10 0 59674  34062.000000  0   -1447053.273   3081760.431   5978238.621
10 0 59674  34182.000000  0    -872043.081   2472198.391   6359816.621
10 0 59674  34302.000000  0    -292948.466   1809391.451   6629612.776
10 0 59674  34422.000000  0     279293.221   1104939.060   6782914.599
10 0 59674  34542.000000  0     834079.700    371347.428   6817045.442
10 0 59674  34662.000000  0    1361339.056   -378191.856   6731407.780
10 0 59674  34782.000000  0    1851711.692  -1130038.257   6527494.040
10 0 59674  34902.000000  0    2296716.290  -1870349.808   6208862.289
10 0 59674  35022.000000  0    2688897.643  -2585337.732   5781079.257
10 0 59674  35142.000000  0    3021954.095  -3261524.707   5251628.445
10 0 59674  35262.000000  0    3290841.125  -3886001.669   4629785.021
10 0 59674  35382.000000  0    3491850.678  -4446678.732   3926459.134
10 0 59674  35502.000000  0    3622663.896  -4932525.688   3154007.546
10 0 59674  35622.000000  0    3682375.173  -5333795.369   2326017.274
10 0 59674  35742.000000  0    3671487.486  -5642225.499   1457064.408
10 0 59674  35862.000000  0    3591878.386  -5851213.263    562452.375
10 0 59674  35982.000000  0    3446737.613  -5955957.230   -342063.904
10 0 59674  36102.000000  0    3240479.066  -5953566.169  -1240563.926
10 0 59674  36222.000000  0    2978625.558  -5843127.380  -2117251.695
10 0 59674  36342.000000  0    2667672.872  -5625735.724  -2956740.222
10 0 59674  36462.000000  0    2314935.728  -5304482.028  -3744327.763
10 0 59674  36582.000000  0    1928378.871  -4884400.868  -4466257.658
10 0 59674  36702.000000  0    1516438.803  -4372380.594  -5109955.411
10 0 59674  36822.000000  0    1087842.372  -3777039.817  -5664241.081
10 0 59674  36942.000000  0     651424.528  -3108573.158  -6119514.512
10 0 59674  37062.000000  0     215948.828  -2378570.015  -6467910.536
10 0 59674  37182.000000  0    -210065.052  -1599810.020  -6703423.582
10 0 59674  37302.000000  0    -618503.504   -786039.039  -6822001.129
10 0 59674  37422.000000  0   -1001808.694     48270.875  -6821605.973
10 0 59674  37542.000000  0   -1353114.793    888173.399  -6702246.311
10 0 59674  37662.000000  0   -1666368.118   1718508.701  -6465975.370
10 0 59674  37782.000000  0   -1936429.029   2524170.166  -6116859.720
10 0 59674  37902.000000  0   -2159155.947   3290374.005  -5660918.240
10 0 59674  38022.000000  0   -2331469.187   4002928.534  -5106028.477
10 0 59674  38142.000000  0   -2451394.056   4648498.366  -4461802.438
10 0 59674  38262.000000  0   -2518082.141   5214859.007  -3739430.060
10 0 59674  38382.000000  0   -2531809.056   5691134.558  -2951492.723
10 0 59674  38502.000000  0   -2493948.884   6068015.237  -2111751.567
10 0 59674  38622.000000  0   -2406926.151   6337950.691  -1234909.812
10 0 59674  38742.000000  0   -2274145.292   6495309.696   -336353.682
99
